STARLINK-3800           
1 52379U 22045BA  26068.60888495 -.00000060  00000+0  14325-4 0  9994
2 52379  53.2173 189.4867 0001345  92.8265 267.2881 15.08838707215916
DISKSAT B               
1 67220U 25305B   26068.81497770  .00012481  00000+0  82401-3 0  9990
2 67220  45.0018 250.2098 0003783 311.4052  48.6498 15.07484556 12311
