[{"OBJECT_NAME":"STARLINK-3800","OBJECT_ID":"2022-045BA","EPOCH":"2026-03-09T14:36:47.659680","MEAN_MOTION":15.08838707,"ECCENTRICITY":0.0001345,"INCLINATION":53.2173,"RA_OF_ASC_NODE":189.4867,"ARG_OF_PERICENTER":92.8265,"MEAN_ANOMALY":267.2881,"EPHEMERIS_TYPE":0,"CLASSIFICATION_TYPE":"U","NORAD_CAT_ID":52379,"ELEMENT_SET_NO":999,"REV_AT_EPOCH":21591,"BSTAR":1.4325e-5,"MEAN_MOTION_DOT":-6.0e-7,"MEAN_MOTION_DDOT":0},{"OBJECT_NAME":"DISKSAT B","OBJECT_ID":"2025-305B","EPOCH":"2026-03-09T19:33:34.074144","MEAN_MOTION":15.07484556,"ECCENTRICITY":0.00037827,"INCLINATION":45.0018,"RA_OF_ASC_NODE":250.2098,"ARG_OF_PERICENTER":311.4052,"MEAN_ANOMALY":48.6498,"EPHEMERIS_TYPE":0,"CLASSIFICATION_TYPE":"U","NORAD_CAT_ID":67220,"ELEMENT_SET_NO":999,"REV_AT_EPOCH":1231,"BSTAR":0.00082400752,"MEAN_MOTION_DOT":0.00012481,"MEAN_MOTION_DDOT":0}]
